[{"OBJECT_NAME":"STARLINK-34278","OBJECT_ID":"2025-127X","EPOCH":"2026-03-09T09:11:54.897792","MEAN_MOTION":15.27574143,"ECCENTRICITY":0.00011766,"INCLINATION":42.9994,"RA_OF_ASC_NODE":181.2082,"ARG_OF_PERICENTER":232.4641,"MEAN_ANOMALY":127.6104,"EPHEMERIS_TYPE":0,"CLASSIFICATION_TYPE":"U","NORAD_CAT_ID":64391,"ELEMENT_SET_NO":999,"REV_AT_EPOCH":4242,"BSTAR":0.0010566033,"MEAN_MOTION_DOT":0.00028922,"MEAN_MOTION_DDOT":0},{"OBJECT_NAME":"WT 1B","OBJECT_ID":"2019-032G","EPOCH":"2026-03-09T21:42:21.881088","MEAN_MOTION":15.25021485,"ECCENTRICITY":0.0008099,"INCLINATION":44.9738,"RA_OF_ASC_NODE":242.0209,"ARG_OF_PERICENTER":49.7728,"MEAN_ANOMALY":310.3861,"EPHEMERIS_TYPE":0,"CLASSIFICATION_TYPE":"U","NORAD_CAT_ID":44316,"ELEMENT_SET_NO":999,"REV_AT_EPOCH":37191,"BSTAR":0.00065022477,"MEAN_MOTION_DOT":0.00016297,"MEAN_MOTION_DDOT":0}]
